{
  "type": "FeatureCollection",
  "features": [
    {
      "type": "Feature",
      "properties": {
        "norad_id": 38091,
        "name": "BEIDOU-2 G5 (C05)",
        "group": "gnss",
        "lat": 1.190297726110617,
        "lon": 92.75751430543981,
        "alt_km": 35832.27241388814,
        "timestamp": "2025-12-14T20:40:32.013671+00:00",
        "meta_object_name": "BEIDOU-2 G5 (C05)",
        "meta_object_id": "2012-008A",
        "meta_epoch": "2025-12-14T01:42:50.088384",
        "meta_mean_motion": 1.00276262,
        "meta_eccentricity": 0.00125582,
        "meta_inclination": 3.1128,
        "meta_ra_of_asc_node": 70.7076,
        "meta_arg_of_pericenter": 228.1722,
        "meta_mean_anomaly": 228.6353,
        "meta_ephemeris_type": 0,
        "meta_classification_type": "U",
        "meta_norad_cat_id": 38091,
        "meta_element_set_no": 999,
        "meta_rev_at_epoch": 5051,
        "meta_bstar": 0,
        "meta_mean_motion_dot": 7.1e-07,
        "meta_mean_motion_ddot": 0,
        "tle_line1": "1 38091U 12008A   25348.07141306  .00000071  00000+0  00000+0 0  9992",
        "tle_line2": "2 38091   3.1128  70.7076 0012558 228.1722 228.6353  1.00276262 50516"
      },
      "geometry": {
        "type": "Point",
        "coordinates": [
          92.75751430543981,
          1.190297726110617
        ]
      }
    },
    {
      "type": "Feature",
      "properties": {
        "norad_id": 38250,
        "name": "BEIDOU-2 M3 (C11)",
        "group": "gnss",
        "lat": -54.32207954126713,
        "lon": -158.469078686969,
        "alt_km": 21468.646529069654,
        "timestamp": "2025-12-14T20:40:32.013683+00:00",
        "meta_object_name": "BEIDOU-2 M3 (C11)",
        "meta_object_id": "2012-018A",
        "meta_epoch": "2025-12-13T22:30:51.861600",
        "meta_mean_motion": 1.86229879,
        "meta_eccentricity": 0.00242907,
        "meta_inclination": 55.9188,
        "meta_ra_of_asc_node": 311.1166,
        "meta_arg_of_pericenter": 274.3199,
        "meta_mean_anomaly": 85.3911,
        "meta_ephemeris_type": 0,
        "meta_classification_type": "U",
        "meta_norad_cat_id": 38250,
        "meta_element_set_no": 999,
        "meta_rev_at_epoch": 9249,
        "meta_bstar": 0,
        "meta_mean_motion_dot": -9.6e-07,
        "meta_mean_motion_ddot": 0,
        "tle_line1": "1 38250U 12018A   25347.93810025 -.00000096  00000+0  00000+0 0  9993",
        "tle_line2": "2 38250  55.9188 311.1166 0024290 274.3199  85.3911  1.86229879 92490"
      },
      "geometry": {
        "type": "Point",
        "coordinates": [
          -158.469078686969,
          -54.32207954126713
        ]
      }
    },
    {
      "type": "Feature",
      "properties": {
        "norad_id": 38251,
        "name": "BEIDOU-2 M4 (C12)",
        "group": "gnss",
        "lat": -42.95446268373701,
        "lon": -88.92552487900944,
        "alt_km": 21494.749174965116,
        "timestamp": "2025-12-14T20:40:32.013694+00:00",
        "meta_object_name": "BEIDOU-2 M4 (C12)",
        "meta_object_id": "2012-018B",
        "meta_epoch": "2025-12-13T07:59:48.422112",
        "meta_mean_motion": 1.86229462,
        "meta_eccentricity": 0.00154528,
        "meta_inclination": 55.8208,
        "meta_ra_of_asc_node": 310.3658,
        "meta_arg_of_pericenter": 277.4494,
        "meta_mean_anomaly": 82.3644,
        "meta_ephemeris_type": 0,
        "meta_classification_type": "U",
        "meta_norad_cat_id": 38251,
        "meta_element_set_no": 999,
        "meta_rev_at_epoch": 9248,
        "meta_bstar": 0,
        "meta_mean_motion_dot": -9.5e-07,
        "meta_mean_motion_ddot": 0,
        "tle_line1": "1 38251U 12018B   25347.33319933 -.00000095  00000+0  00000+0 0  9999",
        "tle_line2": "2 38251  55.8208 310.3658 0015452 277.4494  82.3644  1.86229462 92489"
      },
      "geometry": {
        "type": "Point",
        "coordinates": [
          -88.92552487900944,
          -42.95446268373701
        ]
      }
    },
    {
      "type": "Feature",
      "properties": {
        "norad_id": 38652,
        "name": "SES-5 (EGNOS/PRN 136)",
        "group": "gnss",
        "lat": 0.07541120661763283,
        "lon": 38.88377709781966,
        "alt_km": 35792.80619065548,
        "timestamp": "2025-12-14T20:40:32.013706+00:00",
        "meta_object_name": "SES-5 (EGNOS/PRN 136)",
        "meta_object_id": "2012-036A",
        "meta_epoch": "2025-12-14T06:35:36.684096",
        "meta_mean_motion": 1.00269543,
        "meta_eccentricity": 0.00019726,
        "meta_inclination": 0.0574,
        "meta_ra_of_asc_node": 304.8949,
        "meta_arg_of_pericenter": 316.66,
        "meta_mean_anomaly": 285.5194,
        "meta_ephemeris_type": 0,
        "meta_classification_type": "U",
        "meta_norad_cat_id": 38652,
        "meta_element_set_no": 999,
        "meta_rev_at_epoch": 4260,
        "meta_bstar": 0,
        "meta_mean_motion_dot": 5.1e-07,
        "meta_mean_motion_ddot": 0,
        "tle_line1": "1 38652U 12036A   25348.27473014  .00000051  00000+0  00000+0 0  9990",
        "tle_line2": "2 38652   0.0574 304.8949 0001972 316.6600 285.5194  1.00269543 42606"
      },
      "geometry": {
        "type": "Point",
        "coordinates": [
          38.88377709781966,
          0.07541120661763283
        ]
      }
    },
    {
      "type": "Feature",
      "properties": {
        "norad_id": 38775,
        "name": "BEIDOU-2 M6 (C14)",
        "group": "gnss",
        "lat": 33.475865965438494,
        "lon": -137.05746045909507,
        "alt_km": 21552.219423991795,
        "timestamp": "2025-12-14T20:40:32.013720+00:00",
        "meta_object_name": "BEIDOU-2 M6 (C14)",
        "meta_object_id": "2012-050B",
        "meta_epoch": "2025-12-14T02:49:55.185312",
        "meta_mean_motion": 1.86230872,
        "meta_eccentricity": 0.00112196,
        "meta_inclination": 56.3796,
        "meta_ra_of_asc_node": 69.0216,
        "meta_arg_of_pericenter": 344.1839,
        "meta_mean_anomaly": 15.7992,
        "meta_ephemeris_type": 0,
        "meta_classification_type": "U",
        "meta_norad_cat_id": 38775,
        "meta_element_set_no": 999,
        "meta_rev_at_epoch": 8986,
        "meta_bstar": 0,
        "meta_mean_motion_dot": -8.2e-07,
        "meta_mean_motion_ddot": 0,
        "tle_line1": "1 38775U 12050B   25348.11799983 -.00000082  00000+0  00000+0 0  9996",
        "tle_line2": "2 38775  56.3796  69.0216 0011219 344.1839  15.7992  1.86230872 89869"
      },
      "geometry": {
        "type": "Point",
        "coordinates": [
          -137.05746045909507,
          33.475865965438494
        ]
      }
    },
    {
      "type": "Feature",
      "properties": {
        "norad_id": 38779,
        "name": "GSAT-10 (GAGAN/PRN 128)",
        "group": "gnss",
        "lat": -0.03098417646819474,
        "lon": 116.90214463883332,
        "alt_km": 35775.57342052259,
        "timestamp": "2025-12-14T20:40:32.013734+00:00",
        "meta_object_name": "GSAT-10 (GAGAN/PRN 128)",
        "meta_object_id": "2012-051B",
        "meta_epoch": "2025-12-14T03:32:31.718976",
        "meta_mean_motion": 1.00273023,
        "meta_eccentricity": 0.00024774,
        "meta_inclination": 0.0861,
        "meta_ra_of_asc_node": 266.1624,
        "meta_arg_of_pericenter": 223.081,
        "meta_mean_anomaly": 89.9669,
        "meta_ephemeris_type": 0,
        "meta_classification_type": "U",
        "meta_norad_cat_id": 38779,
        "meta_element_set_no": 999,
        "meta_rev_at_epoch": 4824,
        "meta_bstar": 0,
        "meta_mean_motion_dot": -1.48e-06,
        "meta_mean_motion_ddot": 0,
        "tle_line1": "1 38779U 12051B   25348.14758934 -.00000148  00000+0  00000+0 0  9998",
        "tle_line2": "2 38779   0.0861 266.1624 0002477 223.0810  89.9669  1.00273023 48247"
      },
      "geometry": {
        "type": "Point",
        "coordinates": [
          116.90214463883332,
          -0.03098417646819474
        ]
      }
    },
    {
      "type": "Feature",
      "properties": {
        "norad_id": 38833,
        "name": "GPS BIIF-3  (PRN 24)",
        "group": "gnss",
        "lat": 9.456758321843184,
        "lon": 158.21326659142815,
        "alt_km": 19890.03560217364,
        "timestamp": "2025-12-14T20:40:32.013746+00:00",
        "meta_object_name": "GPS BIIF-3  (PRN 24)",
        "meta_object_id": "2012-053A",
        "meta_epoch": "2025-12-13T20:21:34.724448",
        "meta_mean_motion": 2.00565042,
        "meta_eccentricity": 0.01758819,
        "meta_inclination": 53.5579,
        "meta_ra_of_asc_node": 151.1931,
        "meta_arg_of_pericenter": 64.0051,
        "meta_mean_anomaly": 297.7998,
        "meta_ephemeris_type": 0,
        "meta_classification_type": "U",
        "meta_norad_cat_id": 38833,
        "meta_element_set_no": 999,
        "meta_rev_at_epoch": 9572,
        "meta_bstar": 0,
        "meta_mean_motion_dot": 9.2e-07,
        "meta_mean_motion_ddot": 0,
        "tle_line1": "1 38833U 12053A   25347.84831857  .00000092  00000+0  00000+0 0  9990",
        "tle_line2": "2 38833  53.5579 151.1931 0175881  64.0051 297.7998  2.00565042 95726"
      },
      "geometry": {
        "type": "Point",
        "coordinates": [
          158.21326659142815,
          9.456758321843184
        ]
      }
    }
  ]
}